[{"OBJECT_NAME":"STARLINK-34922","OBJECT_ID":"2025-184A","EPOCH":"2026-03-09T16:41:02.223168","MEAN_MOTION":15.0565116,"ECCENTRICITY":9.631e-5,"INCLINATION":97.6036,"RA_OF_ASC_NODE":122.6941,"ARG_OF_PERICENTER":216.5585,"MEAN_ANOMALY":143.5576,"EPHEMERIS_TYPE":0,"CLASSIFICATION_TYPE":"U","NORAD_CAT_ID":65273,"ELEMENT_SET_NO":999,"REV_AT_EPOCH":3130,"BSTAR":0.00042586516,"MEAN_MOTION_DOT":6.089e-5,"MEAN_MOTION_DDOT":0},{"OBJECT_NAME":"FENGYUN 1C DEB","OBJECT_ID":"1999-025FL","EPOCH":"2026-03-09T22:45:53.964000","MEAN_MOTION":14.6476587,"ECCENTRICITY":0.01924493,"INCLINATION":98.0475,"RA_OF_ASC_NODE":57.7214,"ARG_OF_PERICENTER":300.1723,"MEAN_ANOMALY":112.544,"EPHEMERIS_TYPE":0,"CLASSIFICATION_TYPE":"U","NORAD_CAT_ID":29866,"ELEMENT_SET_NO":999,"REV_AT_EPOCH":1603,"BSTAR":0.0005168677,"MEAN_MOTION_DOT":3.558e-5,"MEAN_MOTION_DDOT":0}]
